{"type": "FeatureCollection", "features": [{"type": "Feature", "properties": {"norad_id": 24876, "name": "GPS BIIR-2  (PRN 13)", "group": "gps-ops", "lat": 55.156558116080696, "lon": -177.0596746793191, "alt_km": 19943.91571965583, "timestamp": "2025-12-02T08:59:32.972796+00:00", "meta": {"OBJECT_NAME": "GPS BIIR-2  (PRN 13)", "OBJECT_ID": "1997-035A", "EPOCH": "2025-12-01T18:20:01.305600", "MEAN_MOTION": 2.00563436, "ECCENTRICITY": 0.0096658, "INCLINATION": 55.8898, "RA_OF_ASC_NODE": 106.2982, "ARG_OF_PERICENTER": 57.0223, "MEAN_ANOMALY": 303.8787, "EPHEMERIS_TYPE": 0, "CLASSIFICATION_TYPE": "U", "NORAD_CAT_ID": 24876, "ELEMENT_SET_NO": 999, "REV_AT_EPOCH": 20799, "BSTAR": 0, "MEAN_MOTION_DOT": 3.5e-07, "MEAN_MOTION_DDOT": 0}, "tle": {"line1": "1 24876U 97035A   25335.76390400  .00000035  00000+0  00000+0 0  9994", "line2": "2 24876  55.8898 106.2982 0096658  57.0223 303.8787  2.00563436207995"}}, "geometry": {"type": "Point", "coordinates": [-177.0596746793191, 55.156558116080696]}}, {"type": "Feature", "properties": {"norad_id": 26360, "name": "GPS BIIR-4  (PRN 20)", "group": "gps-ops", "lat": 5.500081781726089, "lon": -156.58480167985135, "alt_km": 20141.72660367609, "timestamp": "2025-12-02T08:59:32.972824+00:00", "meta": {"OBJECT_NAME": "GPS BIIR-4  (PRN 20)", "OBJECT_ID": "2000-025A", "EPOCH": "2025-12-02T03:30:27.357408", "MEAN_MOTION": 2.00568432, "ECCENTRICITY": 0.0038771, "INCLINATION": 55.0389, "RA_OF_ASC_NODE": 27.2666, "ARG_OF_PERICENTER": 240.9431, "MEAN_ANOMALY": 127.7379, "EPHEMERIS_TYPE": 0, "CLASSIFICATION_TYPE": "U", "NORAD_CAT_ID": 26360, "ELEMENT_SET_NO": 999, "REV_AT_EPOCH": 18732, "BSTAR": 0, "MEAN_MOTION_DOT": -6.9e-07, "MEAN_MOTION_DDOT": 0}, "tle": {"line1": "1 26360U 00025A   25336.14614997 -.00000069  00000+0  00000+0 0  9998", "line2": "2 26360  55.0389  27.2666 0038771 240.9431 127.7379  2.00568432187324"}}, "geometry": {"type": "Point", "coordinates": [-156.58480167985135, 5.500081781726089]}}, {"type": "Feature", "properties": {"norad_id": 26407, "name": "GPS BIIR-5  (PRN 22)", "group": "gps-ops", "lat": 11.880916532096338, "lon": -128.51617943789, "alt_km": 20077.961041665178, "timestamp": "2025-12-02T08:59:32.972841+00:00", "meta": {"OBJECT_NAME": "GPS BIIR-5  (PRN 22)", "OBJECT_ID": "2000-040A", "EPOCH": "2025-12-01T02:24:31.416768", "MEAN_MOTION": 2.00567692, "ECCENTRICITY": 0.01266559, "INCLINATION": 54.8937, "RA_OF_ASC_NODE": 223.032, "ARG_OF_PERICENTER": 301.5907, "MEAN_ANOMALY": 231.5341, "EPHEMERIS_TYPE": 0, "CLASSIFICATION_TYPE": "U", "NORAD_CAT_ID": 26407, "ELEMENT_SET_NO": 999, "REV_AT_EPOCH": 18597, "BSTAR": 0, "MEAN_MOTION_DOT": 4.5e-07, "MEAN_MOTION_DDOT": 0}, "tle": {"line1": "1 26407U 00040A   25335.10036362  .00000045  00000+0  00000+0 0  9999", "line2": "2 26407  54.8937 223.0320 0126655 301.5907 231.5341  2.00567692185975"}}, "geometry": {"type": "Point", "coordinates": [-128.51617943789, 11.880916532096338]}}, {"type": "Feature", "properties": {"norad_id": 27663, "name": "GPS BIIR-8  (PRN 16)", "group": "gps-ops", "lat": 23.639815024501804, "lon": 24.905819064186073, "alt_km": 20234.286430862787, "timestamp": "2025-12-02T08:59:32.972855+00:00", "meta": {"OBJECT_NAME": "GPS BIIR-8  (PRN 16)", "OBJECT_ID": "2003-005A", "EPOCH": "2025-12-01T05:43:03.661248", "MEAN_MOTION": 2.00571434, "ECCENTRICITY": 0.0146981, "INCLINATION": 54.9264, "RA_OF_ASC_NODE": 222.8358, "ARG_OF_PERICENTER": 51.639, "MEAN_ANOMALY": 356.7865, "EPHEMERIS_TYPE": 0, "CLASSIFICATION_TYPE": "U", "NORAD_CAT_ID": 27663, "ELEMENT_SET_NO": 999, "REV_AT_EPOCH": 16734, "BSTAR": 0, "MEAN_MOTION_DOT": 4.7e-07, "MEAN_MOTION_DDOT": 0}, "tle": {"line1": "1 27663U 03005A   25335.23823682  .00000047  00000+0  00000+0 0  9993", "line2": "2 27663  54.9264 222.8358 0146981  51.6390 356.7865  2.00571434167346"}}, "geometry": {"type": "Point", "coordinates": [24.905819064186073, 23.639815024501804]}}, {"type": "Feature", "properties": {"norad_id": 28190, "name": "GPS BIIR-11 (PRN 19)", "group": "gps-ops", "lat": -39.564586207547684, "lon": -111.72476438992712, "alt_km": 20410.884471977617, "timestamp": "2025-12-02T08:59:32.972868+00:00", "meta": {"OBJECT_NAME": "GPS BIIR-11 (PRN 19)", "OBJECT_ID": "2004-009A", "EPOCH": "2025-11-26T05:14:39.537024", "MEAN_MOTION": 2.00561394, "ECCENTRICITY": 0.01080929, "INCLINATION": 55.0011, "RA_OF_ASC_NODE": 283.885, "ARG_OF_PERICENTER": 167.3745, "MEAN_ANOMALY": 15.773, "EPHEMERIS_TYPE": 0, "CLASSIFICATION_TYPE": "U", "NORAD_CAT_ID": 28190, "ELEMENT_SET_NO": 999, "REV_AT_EPOCH": 15887, "BSTAR": 0, "MEAN_MOTION_DOT": -2.4e-07, "MEAN_MOTION_DDOT": 0}, "tle": {"line1": "1 28190U 04009A   25330.21851316 -.00000024  00000+0  00000+0 0  9998", "line2": "2 28190  55.0011 283.8850 0108092 167.3745  15.7730  2.00561394158873"}}, "geometry": {"type": "Point", "coordinates": [-111.72476438992712, -39.564586207547684]}}, {"type": "Feature", "properties": {"norad_id": 28474, "name": "GPS BIIR-13 (PRN 02)", "group": "gps-ops", "lat": 7.931400514764709, "lon": -21.628398610373175, "alt_km": 19955.86137658417, "timestamp": "2025-12-02T08:59:32.972880+00:00", "meta": {"OBJECT_NAME": "GPS BIIR-13 (PRN 02)", "OBJECT_ID": "2004-045A", "EPOCH": "2025-12-01T07:58:00.952608", "MEAN_MOTION": 2.00568823, "ECCENTRICITY": 0.01705095, "INCLINATION": 55.2462, "RA_OF_ASC_NODE": 332.865, "ARG_OF_PERICENTER": 308.7554, "MEAN_ANOMALY": 26.3129, "EPHEMERIS_TYPE": 0, "CLASSIFICATION_TYPE": "U", "NORAD_CAT_ID": 28474, "ELEMENT_SET_NO": 999, "REV_AT_EPOCH": 15445, "BSTAR": 0, "MEAN_MOTION_DOT": -5.6e-07, "MEAN_MOTION_DDOT": 0}, "tle": {"line1": "1 28474U 04045A   25335.33195547 -.00000056  00000+0  00000+0 0  9993", "line2": "2 28474  55.2462 332.8650 0170509 308.7554  26.3129  2.00568823154458"}}, "geometry": {"type": "Point", "coordinates": [-21.628398610373175, 7.931400514764709]}}, {"type": "Feature", "properties": {"norad_id": 28874, "name": "GPS BIIRM-1 (PRN 17)", "group": "gps-ops", "lat": -26.07504299395055, "lon": -98.9008994032498, "alt_km": 19892.977536914044, "timestamp": "2025-12-02T08:59:32.972893+00:00", "meta": {"OBJECT_NAME": "GPS BIIRM-1 (PRN 17)", "OBJECT_ID": "2005-038A", "EPOCH": "2025-11-30T16:16:45.058656", "MEAN_MOTION": 2.00548966, "ECCENTRICITY": 0.01328775, "INCLINATION": 55.0429, "RA_OF_ASC_NODE": 281.1867, "ARG_OF_PERICENTER": 293.3584, "MEAN_ANOMALY": 248.5646, "EPHEMERIS_TYPE": 0, "CLASSIFICATION_TYPE": "U", "NORAD_CAT_ID": 28874, "ELEMENT_SET_NO": 999, "REV_AT_EPOCH": 14785, "BSTAR": 0, "MEAN_MOTION_DOT": -4.1e-07, "MEAN_MOTION_DDOT": 0}, "tle": {"line1": "1 28874U 05038A   25334.67829929 -.00000041  00000+0  00000+0 0  9998", "line2": "2 28874  55.0429 281.1867 0132877 293.3584 248.5646  2.00548966147851"}}, "geometry": {"type": "Point", "coordinates": [-98.9008994032498, -26.07504299395055]}}, {"type": "Feature", "properties": {"norad_id": 29486, "name": "GPS BIIRM-2 (PRN 31)", "group": "gps-ops", "lat": -39.030832877125874, "lon": 14.234485490759429, "alt_km": 20472.928719843003, "timestamp": "2025-12-02T08:59:32.972904+00:00", "meta": {"OBJECT_NAME": "GPS BIIRM-2 (PRN 31)", "OBJECT_ID": "2006-042A", "EPOCH": "2025-12-01T13:45:36.640800", "MEAN_MOTION": 2.00554492, "ECCENTRICITY": 0.01073693, "INCLINATION": 54.6925, "RA_OF_ASC_NODE": 159.184, "ARG_OF_PERICENTER": 51.6942, "MEAN_ANOMALY": 320.2253, "EPHEMERIS_TYPE": 0, "CLASSIFICATION_TYPE": "U", "NORAD_CAT_ID": 29486, "ELEMENT_SET_NO": 999, "REV_AT_EPOCH": 14043, "BSTAR": 0, "MEAN_MOTION_DOT": 1.26e-06, "MEAN_MOTION_DDOT": 0}, "tle": {"line1": "1 29486U 06042A   25335.57334075  .00000126  00000+0  00000+0 0  9990", "line2": "2 29486  54.6925 159.1840 0107369  51.6942 320.2253  2.00554492140433"}}, "geometry": {"type": "Point", "coordinates": [14.234485490759429, -39.030832877125874]}}, {"type": "Feature", "properties": {"norad_id": 29601, "name": "GPS BIIRM-3 (PRN 12)", "group": "gps-ops", "lat": -51.53327852051142, "lon": 159.96349218022817, "alt_km": 20405.234374619933, "timestamp": "2025-12-02T08:59:32.972916+00:00", "meta": {"OBJECT_NAME": "GPS BIIRM-3 (PRN 12)", "OBJECT_ID": "2006-052A", "EPOCH": "2025-11-30T23:32:34.416960", "MEAN_MOTION": 2.00572625, "ECCENTRICITY": 0.0087464, "INCLINATION": 54.9732, "RA_OF_ASC_NODE": 221.865, "ARG_OF_PERICENTER": 87.3176, "MEAN_ANOMALY": 273.7605, "EPHEMERIS_TYPE": 0, "CLASSIFICATION_TYPE": "U", "NORAD_CAT_ID": 29601, "ELEMENT_SET_NO": 999, "REV_AT_EPOCH": 13943, "BSTAR": 0, "MEAN_MOTION_DOT": 4.7e-07, "MEAN_MOTION_DDOT": 0}, "tle": {"line1": "1 29601U 06052A   25334.98095390  .00000047  00000+0  00000+0 0  9990", "line2": "2 29601  54.9732 221.8650 0087464  87.3176 273.7605  2.00572625139434"}}, "geometry": {"type": "Point", "coordinates": [159.96349218022817, -51.53327852051142]}}, {"type": "Feature", "properties": {"norad_id": 32260, "name": "GPS BIIRM-4 (PRN 15)", "group": "gps-ops", "lat": 48.19613345249105, "lon": 142.6382581593386, "alt_km": 19760.87303328075, "timestamp": "2025-12-02T08:59:32.972928+00:00", "meta": {"OBJECT_NAME": "GPS BIIRM-4 (PRN 15)", "OBJECT_ID": "2007-047A", "EPOCH": "2025-12-01T06:52:15.674592", "MEAN_MOTION": 2.00564902, "ECCENTRICITY": 0.0164402, "INCLINATION": 53.9473, "RA_OF_ASC_NODE": 88.2317, "ARG_OF_PERICENTER": 85.1099, "MEAN_ANOMALY": 276.7472, "EPHEMERIS_TYPE": 0, "CLASSIFICATION_TYPE": "U", "NORAD_CAT_ID": 32260, "ELEMENT_SET_NO": 999, "REV_AT_EPOCH": 13284, "BSTAR": 0, "MEAN_MOTION_DOT": -3e-08, "MEAN_MOTION_DDOT": 0}, "tle": {"line1": "1 32260U 07047A   25335.28629253 -.00000003  00000+0  00000+0 0  9998", "line2": "2 32260  53.9473  88.2317 0164402  85.1099 276.7472  2.00564902132845"}}, "geometry": {"type": "Point", "coordinates": [142.6382581593386, 48.19613345249105]}}]}